ONEWEB-0634             
1 56075U 23043AF  25285.81046761 -.00000042  00000+0 -14686-3 0  9995
2 56075  87.8977 308.6015 0002189  95.8293 264.3087 13.15547213123873
ONEWEB-0635             
1 56076U 23043AG  25285.80571335  .00000058  00000+0  11940-3 0  9990
2 56076  87.8965 308.5603 0001584  89.2989 270.8323 13.15549752123909
ONEWEB-0636             
1 56077U 23043AH  25285.79779051 -.00000162  00000+0 -46519-3 0  9992
2 56077  87.8966 308.5804 0001690  89.0616 271.0708 13.15546732123889
ONEWEB-0637             
1 56078U 23043AJ  25285.79143873 -.00000062  00000+0 -19946-3 0  9993
2 56078  87.8970 308.5952 0001943  84.6563 275.4789 13.15548303123908
ONEWEB-0647             
1 56079U 23043AK  25285.93881375 -.00000092  00000+0 -27913-3 0  9992
2 56079  87.8976 308.5792 0001681  96.1368 263.9954 13.15546769123918
ONEWEB-0651             
1 56080U 23043AL  25285.93405985 -.00000065  00000+0 -20570-3 0  9995
2 56080  87.8979 308.5725 0001723  85.5536 274.5792 13.15549987125112
ONEWEB-0718             
1 56081U 23043AM  25285.92931690 -.00000012  00000+0 -67194-4 0  9998
2 56081  87.8978 308.5540 0002422  93.7259 266.4149 13.15547359123921
ONEWEB-0561             
1 56710U 23068A   25285.85185043  .00000068  00000+0  13528-3 0  9999
2 56710  87.9217 323.7796 0001408  95.3835 264.7459 13.20772386116855
